export const FALLBACK_STARLINK_TLES = `STARLINK-1008
1 44714U 19074B   26069.48979328 -.00000226  00000+0  44881-5 0  9994
2 44714  53.1575 175.0330 0001372  91.8157 268.3001 15.31022046348998
STARLINK-1012
1 44718U 19074F   26069.47065662 -.00000450  00000+0 -30844-5 0  9998
2 44718  53.1630 175.1818 0001189 113.8884 246.2242 15.30176705348986
STARLINK-1017
1 44723U 19074L   26069.52698590  .00058555  00000+0  23594-2 0  9990
2 44723  53.0555 167.6003 0001387  49.8973 310.2146 15.24307344349092
STARLINK-1019
1 44724U 19074M   26069.58334490  .00180376  00000+0  86874-3 0  9991
2 44724  53.0415 132.2173 0000739 220.3593 264.5944 15.81598599  5776
STARLINK-1020
1 44725U 19074N   26069.51801046  .00001165  00000+0  51464-4 0  9997
2 44725  53.1597 199.9998 0001041  88.0732 272.0388 15.30190026348633
STARLINK-1031
1 44736U 19074Z   26069.58334490  .00267466  37665-4  83054-3 0  9999
2 44736  53.0377 115.4872 0005305   9.2091   7.9199 15.91172663  5947`;
